{
"type": "FeatureCollection",
"name": "buildings_WGS84",
"crs": { "type": "name", "properties": { "name": "urn:ogc:def:crs:OGC:1.3:CRS84" } },
"features": [
{ "type": "Feature", "properties": { "name": "邱德拔体育馆", "Shape_Leng": 509.769143337, "Shape_Area": 14643.740080899999 }, "geometry": { "type": "MultiPolygon", "coordinates": [ [ [ [ 116.308665590683262, 39.987317359697741, 0.0 ], [ 116.308653569428117, 39.987685769415933, 0.0 ], [ 116.309537107425825, 39.98770418967765, 0.0 ], [ 116.309573170292879, 39.986838423749653, 0.0 ], [ 116.308371078017345, 39.98682460786258, 0.0 ], [ 116.308383098374179, 39.987280518272541, 0.0 ], [ 116.308665590683262, 39.987317359697741, 0.0 ] ] ] ] } },
{ "type": "Feature", "properties": { "name": null, "Shape_Leng": 166.23822287499999, "Shape_Area": 1690.6902324800001 }, "geometry": { "type": "MultiPolygon", "coordinates": [ [ [ [ 116.308271044322282, 39.987980466852612, 0.0 ], [ 116.308593551187386, 39.987991784084308, 0.0 ], [ 116.308605860801705, 39.987665462591075, 0.0 ], [ 116.308290738986557, 39.987652258746664, 0.0 ], [ 116.308271044322282, 39.987980466852612, 0.0 ] ] ] ] } },
{ "type": "Feature", "properties": { "name": null, "Shape_Leng": 317.86805729700001, "Shape_Area": 6313.5456161599996 }, "geometry": { "type": "MultiPolygon", "coordinates": [ [ [ [ 116.308275967988322, 39.988676487911789, 0.0 ], [ 116.308978894308254, 39.988684678935641, 0.0 ], [ 116.308989914840183, 39.988129480017029, 0.0 ], [ 116.308286989418534, 39.988121288926607, 0.0 ], [ 116.308275967988322, 39.988676487911789, 0.0 ] ] ] ] } },
{ "type": "Feature", "properties": { "name": null, "Shape_Leng": 204.02115990300001, "Shape_Area": 2065.2296659 }, "geometry": { "type": "MultiPolygon", "coordinates": [ [ [ [ 116.307532016507693, 39.987838290657351, 0.0 ], [ 116.308197961882342, 39.987853037571234, 0.0 ], [ 116.308205188828794, 39.987661454773061, 0.0 ], [ 116.307539243454158, 39.987646707817817, 0.0 ], [ 116.307532016507693, 39.987838290657351, 0.0 ] ] ] ] } },
{ "type": "Feature", "properties": { "name": null, "Shape_Leng": 138.53942667199999, "Shape_Area": 1093.81485185 }, "geometry": { "type": "MultiPolygon", "coordinates": [ [ [ [ 116.307998189139568, 39.987848614048012, 0.0 ], [ 116.307986531702127, 39.988157647422007, 0.0 ], [ 116.308205188828794, 39.988162489392607, 0.0 ], [ 116.30821684626622, 39.987853456040519, 0.0 ], [ 116.307998189139568, 39.987848614048012, 0.0 ] ] ] ] } },
{ "type": "Feature", "properties": { "name": "李兆基楼", "Shape_Leng": 497.528814356, "Shape_Area": 8445.2858391099999 }, "geometry": { "type": "MultiPolygon", "coordinates": [ [ [ [ 116.307262748297902, 39.988271537224264, 0.0 ], [ 116.307297368470628, 39.987743978059115, 0.0 ], [ 116.3069280854304, 39.987726294260419, 0.0 ], [ 116.306889618671633, 39.988539736692914, 0.0 ], [ 116.30805901406741, 39.988572156027459, 0.0 ], [ 116.308066708137858, 39.988286273720583, 0.0 ], [ 116.307262748297902, 39.988271537224264, 0.0 ] ] ] ] } },
{ "type": "Feature", "properties": { "name": null, "Shape_Leng": 66.267410875500005, "Shape_Area": 274.37427044999998 }, "geometry": { "type": "MultiPolygon", "coordinates": [ [ [ [ 116.307882066617722, 39.985715047345423, 0.0 ], [ 116.308029779294813, 39.985718819881313, 0.0 ], [ 116.308029985907353, 39.985601869107349, 0.0 ], [ 116.307882195975111, 39.985602363302817, 0.0 ], [ 116.307882066617722, 39.985715047345423, 0.0 ] ] ] ] } },
{ "type": "Feature", "properties": { "name": null, "Shape_Leng": 431.51143010200002, "Shape_Area": 6401.6708711399997 }, "geometry": { "type": "MultiPolygon", "coordinates": [ [ [ [ 116.306135665348577, 39.986868633130683, 0.0 ], [ 116.306454941871948, 39.98688042270782, 0.0 ], [ 116.306554955804089, 39.985636647931997, 0.0 ], [ 116.306235680179057, 39.985636647931997, 0.0 ], [ 116.306135665348577, 39.986868633130683, 0.0 ] ] ] ] } },
{ "type": "Feature", "properties": { "name": null, "Shape_Leng": 273.48067200999998, "Shape_Area": 2748.7443482499998 }, "geometry": { "type": "MultiPolygon", "coordinates": [ [ [ [ 116.305690987604848, 39.985916882196179, 0.0 ], [ 116.305607283485003, 39.985918768114402, 0.0 ], [ 116.305594973870654, 39.986062127345235, 0.0 ], [ 116.30591994301794, 39.986067786464368, 0.0 ], [ 116.305937176298357, 39.985432100366239, 0.0 ], [ 116.305626978149292, 39.985424555262632, 0.0 ], [ 116.305626584687161, 39.985559691094828, 0.0 ], [ 116.305708516430983, 39.985563312214374, 0.0 ], [ 116.305690987604848, 39.985916882196179, 0.0 ] ] ] ] } },
{ "type": "Feature", "properties": { "name": null, "Shape_Leng": 274.159845754, "Shape_Area": 2716.9040956200001 }, "geometry": { "type": "MultiPolygon", "coordinates": [ [ [ [ 116.305631311622221, 39.986830468585204, 0.0 ], [ 116.305533497664172, 39.986831240837795, 0.0 ], [ 116.305529464228542, 39.986959495897381, 0.0 ], [ 116.305864249266961, 39.986968767039585, 0.0 ], [ 116.305877358381892, 39.986338307918132, 0.0 ], [ 116.305572825009008, 39.986332127099729, 0.0 ], [ 116.305563749329707, 39.986458837206335, 0.0 ], [ 116.305652487608427, 39.986462700554831, 0.0 ], [ 116.305631311622221, 39.986830468585204, 0.0 ] ] ] ] } },
{ "type": "Feature", "properties": { "name": null, "Shape_Leng": 276.36443311199997, "Shape_Area": 2586.30225845 }, "geometry": { "type": "MultiPolygon", "coordinates": [ [ [ [ 116.305558833748449, 39.987812364135131, 0.0 ], [ 116.30546114555456, 39.987818400282464, 0.0 ], [ 116.30545169168451, 39.987960849762622, 0.0 ], [ 116.305769964789661, 39.987968093123584, 0.0 ], [ 116.305790447276479, 39.987325860609296, 0.0 ], [ 116.305498960136433, 39.987318617180236, 0.0 ], [ 116.305486354976367, 39.987445374324693, 0.0 ], [ 116.305590345750304, 39.987445374324693, 0.0 ], [ 116.305558833748449, 39.987812364135131, 0.0 ] ] ] ] } },
{ "type": "Feature", "properties": { "name": null, "Shape_Leng": 178.37770057500001, "Shape_Area": 1537.1842704000001 }, "geometry": { "type": "MultiPolygon", "coordinates": [ [ [ [ 116.304607757712745, 39.98696565876368, 0.0 ], [ 116.305198890492193, 39.986981012241181, 0.0 ], [ 116.305205996166094, 39.986820415535611, 0.0 ], [ 116.304614862488364, 39.986805062022022, 0.0 ], [ 116.304607757712745, 39.98696565876368, 0.0 ] ] ] ] } },
{ "type": "Feature", "properties": { "name": null, "Shape_Leng": 138.738766083, "Shape_Area": 933.66467137500001 }, "geometry": { "type": "MultiPolygon", "coordinates": [ [ [ [ 116.30451666764462, 39.986758167950036, 0.0 ], [ 116.304680501487823, 39.986765893236466, 0.0 ], [ 116.304708695113035, 39.986414864672163, 0.0 ], [ 116.304544861269832, 39.986407139346028, 0.0 ], [ 116.30451666764462, 39.986758167950036, 0.0 ] ] ] ] } },
{ "type": "Feature", "properties": { "name": null, "Shape_Leng": 171.429599303, "Shape_Area": 1320.83315812 }, "geometry": { "type": "MultiPolygon", "coordinates": [ [ [ [ 116.304632376043131, 39.986382797404836, 0.0 ], [ 116.305220491381547, 39.986408047195766, 0.0 ], [ 116.305230614496452, 39.986269619584696, 0.0 ], [ 116.304642500056346, 39.9862443697426, 0.0 ], [ 116.304632376043131, 39.986382797404836, 0.0 ] ] ] ] } },
{ "type": "Feature", "properties": { "name": null, "Shape_Leng": 165.49751672900001, "Shape_Area": 1153.01185237 }, "geometry": { "type": "MultiPolygon", "coordinates": [ [ [ [ 116.304665463689972, 39.985968943845037, 0.0 ], [ 116.305249131469438, 39.985984699508272, 0.0 ], [ 116.305254741448366, 39.985862707451574, 0.0 ], [ 116.304671073668942, 39.985846952448505, 0.0 ], [ 116.304665463689972, 39.985968943845037, 0.0 ] ] ] ] } },
{ "type": "Feature", "properties": { "name": null, "Shape_Leng": 174.244631519, "Shape_Area": 1158.31823072 }, "geometry": { "type": "MultiPolygon", "coordinates": [ [ [ [ 116.304668614980017, 39.985494499896873, 0.0 ], [ 116.305303595426807, 39.985515333224789, 0.0 ], [ 116.305309887227011, 39.985402749344061, 0.0 ], [ 116.304674907678574, 39.985381915981769, 0.0 ], [ 116.304668614980017, 39.985494499896873, 0.0 ] ] ] ] } },
{ "type": "Feature", "properties": { "name": null, "Shape_Leng": 119.112549497, "Shape_Area": 712.09428198600006 }, "geometry": { "type": "MultiPolygon", "coordinates": [ [ [ [ 116.304594561461244, 39.985805967398122, 0.0 ], [ 116.304743079028839, 39.985812822790649, 0.0 ], [ 116.304766303173864, 39.985517437343724, 0.0 ], [ 116.304617785606268, 39.985510581921552, 0.0 ], [ 116.304594561461244, 39.985805967398122, 0.0 ] ] ] ] } },
{ "type": "Feature", "properties": { "name": "智华楼", "Shape_Leng": 453.96231979200002, "Shape_Area": 9191.4846727799995 }, "geometry": { "type": "MultiPolygon", "coordinates": [ [ [ [ 116.305497114098557, 39.988701833900116, 0.0 ], [ 116.305404793338482, 39.988698886756644, 0.0 ], [ 116.305374019751795, 39.9889051926842, 0.0 ], [ 116.306312613696619, 39.988914034087443, 0.0 ], [ 116.306312613696619, 39.988751937383782, 0.0 ], [ 116.306208753178439, 39.988740148129686, 0.0 ], [ 116.306220292936544, 39.988410057824254, 0.0 ], [ 116.306354927041468, 39.988407110668241, 0.0 ], [ 116.306354927041468, 39.988227329092673, 0.0 ], [ 116.305424026268724, 39.988218486912324, 0.0 ], [ 116.30541248651059, 39.988395322042912, 0.0 ], [ 116.305516347028771, 39.988401216355832, 0.0 ], [ 116.305497114098557, 39.988701833900116, 0.0 ] ] ] ] } },
{ "type": "Feature", "properties": { "name": null, "Shape_Leng": 75.99347645, "Shape_Area": 323.08972476999998 }, "geometry": { "type": "MultiPolygon", "coordinates": [ [ [ [ 116.300681048231013, 39.988872773507701, 0.0 ], [ 116.300573341126778, 39.988875720643627, 0.0 ], [ 116.300550260712185, 39.98904960625628, 0.0 ], [ 116.300677201644973, 39.989040764870637, 0.0 ], [ 116.300681048231013, 39.988872773507701, 0.0 ] ] ] ] } },
{ "type": "Feature", "properties": { "name": null, "Shape_Leng": 99.910590005399996, "Shape_Area": 450.81769162299997 }, "geometry": { "type": "MultiPolygon", "coordinates": [ [ [ [ 116.300677201644973, 39.989040764870637, 0.0 ], [ 116.300684895715364, 39.98910855086293, 0.0 ], [ 116.301019557684597, 39.989117392239848, 0.0 ], [ 116.301027251754988, 39.98903486992463, 0.0 ], [ 116.300677481919323, 39.989028513843913, 0.0 ], [ 116.300677201644973, 39.989040764870637, 0.0 ] ] ] ] } },
{ "type": "Feature", "properties": { "name": null, "Shape_Leng": 296.62771661900001, "Shape_Area": 3187.19130051 }, "geometry": { "type": "MultiPolygon", "coordinates": [ [ [ [ 116.300602268675561, 39.988787775217148, 0.0 ], [ 116.301094645164241, 39.988799093003365, 0.0 ], [ 116.301092183780341, 39.989087684217864, 0.0 ], [ 116.301313753245211, 39.989089570736823, 0.0 ], [ 116.301328525141741, 39.988621787457085, 0.0 ], [ 116.300607192341602, 39.988602924888916, 0.0 ], [ 116.300602268675561, 39.988787775217148, 0.0 ] ] ] ] } },
{ "type": "Feature", "properties": { "name": null, "Shape_Leng": 353.84696972400002, "Shape_Area": 4157.2623636099997 }, "geometry": { "type": "MultiPolygon", "coordinates": [ [ [ [ 116.30049394532702, 39.98825208540211, 0.0 ], [ 116.300496407609202, 39.988440709065259, 0.0 ], [ 116.301348219806002, 39.988461457526299, 0.0 ], [ 116.301365453086419, 39.987884267898529, 0.0 ], [ 116.301126650341189, 39.987891813418749, 0.0 ], [ 116.301087260114301, 39.988269061525585, 0.0 ], [ 116.30049394532702, 39.98825208540211, 0.0 ] ] ] ] } },
{ "type": "Feature", "properties": { "name": null, "Shape_Leng": 208.28864371500001, "Shape_Area": 1623.98121603 }, "geometry": { "type": "MultiPolygon", "coordinates": [ [ [ [ 116.299338551073205, 39.988631100357829, 0.0 ], [ 116.299207763554378, 39.988625206064739, 0.0 ], [ 116.299203916968281, 39.988943506799757, 0.0 ], [ 116.299730914528055, 39.988952348197991, 0.0 ], [ 116.299730914528055, 39.988807934420286, 0.0 ], [ 116.299327011315071, 39.988787303757356, 0.0 ], [ 116.299338551073205, 39.988631100357829, 0.0 ] ] ] ] } },
{ "type": "Feature", "properties": { "name": null, "Shape_Leng": 429.06738524299999, "Shape_Area": 7171.4351566699997 }, "geometry": { "type": "MultiPolygon", "coordinates": [ [ [ [ 116.299180836553703, 39.989185178156099, 0.0 ], [ 116.299173143381623, 39.989420954433008, 0.0 ], [ 116.300100197568327, 39.989462214681623, 0.0 ], [ 116.300196364914427, 39.989409165294376, 0.0 ], [ 116.300238678259262, 39.988722464588818, 0.0 ], [ 116.299857855460857, 39.988728359561776, 0.0 ], [ 116.29977707445893, 39.989202861577184, 0.0 ], [ 116.299180836553703, 39.989185178156099, 0.0 ] ] ] ] } },
{ "type": "Feature", "properties": { "name": null, "Shape_Leng": 308.60808699900002, "Shape_Area": 5920.2216276600002 }, "geometry": { "type": "MultiPolygon", "coordinates": [ [ [ [ 116.30820278493708, 39.989725804374984, 0.0 ], [ 116.30883388376354, 39.989744224086536, 0.0 ], [ 116.308869946630622, 39.989168600073768, 0.0 ], [ 116.3082148052939, 39.98916399493546, 0.0 ], [ 116.30820278493708, 39.989725804374984, 0.0 ] ] ] ] } },
{ "type": "Feature", "properties": { "name": null, "Shape_Leng": 407.52644457000002, "Shape_Area": 9595.06165607 }, "geometry": { "type": "MultiPolygon", "coordinates": [ [ [ [ 116.306818464914585, 39.989804863947143, 0.0 ], [ 116.307473146313868, 39.989835395494737, 0.0 ], [ 116.307527229385528, 39.988932528350112, 0.0 ], [ 116.306855469216089, 39.988921624230883, 0.0 ], [ 116.306818464914585, 39.989804863947143, 0.0 ] ] ] ] } },
{ "type": "Feature", "properties": { "name": "英杰交流中心", "Shape_Leng": 293.15465267899998, "Shape_Area": 5331.4851499699998 }, "geometry": { "type": "MultiPolygon", "coordinates": [ [ [ [ 116.30820278493708, 39.989725804374984, 0.0 ], [ 116.30821289547562, 39.989253251696809, 0.0 ], [ 116.307508012625007, 39.989253338417313, 0.0 ], [ 116.307480992199586, 39.989704421728582, 0.0 ], [ 116.30820278493708, 39.989725804374984, 0.0 ] ] ] ] } },
{ "type": "Feature", "properties": { "name": "地空学院", "Shape_Leng": 436.53088430299999, "Shape_Area": 9339.6818784999996 }, "geometry": { "type": "MultiPolygon", "coordinates": [ [ [ [ 116.308452322549982, 39.989826672590091, 0.0 ], [ 116.308438089642635, 39.98999459553508, 0.0 ], [ 116.308005431357373, 39.989996776600101, 0.0 ], [ 116.307974120578152, 39.990613945690733, 0.0 ], [ 116.308756890957142, 39.99063575338711, 0.0 ], [ 116.308822359276746, 39.99021703903189, 0.0 ], [ 116.308939063906877, 39.990227942944337, 0.0 ], [ 116.308958988539871, 39.990025126997828, 0.0 ], [ 116.308714194930033, 39.99002076555778, 0.0 ], [ 116.308714194930033, 39.989837576564852, 0.0 ], [ 116.308452322549982, 39.989826672590091, 0.0 ] ] ] ] } },
{ "type": "Feature", "properties": { "name": "黄廷方楼", "Shape_Leng": 435.07704065299998, "Shape_Area": 6623.5317062399999 }, "geometry": { "type": "MultiPolygon", "coordinates": [ [ [ [ 116.307012023112208, 39.989909543580332, 0.0 ], [ 116.306750150732157, 39.989909543580332, 0.0 ], [ 116.306713147328992, 39.990513628545941, 0.0 ], [ 116.307510150615357, 39.990548521183321, 0.0 ], [ 116.307555693403629, 39.9899335325686, 0.0 ], [ 116.307305206271479, 39.9899335325686, 0.0 ], [ 116.307282434877351, 39.990190869084387, 0.0 ], [ 116.306977865571852, 39.990186507654926, 0.0 ], [ 116.307012023112208, 39.989909543580332, 0.0 ] ] ] ] } },
{ "type": "Feature", "properties": { "name": "生命科学大楼", "Shape_Leng": 349.24228584299999, "Shape_Area": 6795.6264872600004 }, "geometry": { "type": "MultiPolygon", "coordinates": [ [ [ [ 116.308090824309971, 39.9914949831958, 0.0 ], [ 116.308907752229317, 39.991512429266038, 0.0 ], [ 116.308921985136706, 39.991235470567773, 0.0 ], [ 116.308748351572078, 39.991224566816165, 0.0 ], [ 116.308776816488475, 39.990943245569476, 0.0 ], [ 116.308113595704086, 39.990919256935776, 0.0 ], [ 116.308090824309971, 39.9914949831958, 0.0 ] ] ] ] } },
{ "type": "Feature", "properties": { "name": "吕志和楼", "Shape_Leng": 387.31041825300002, "Shape_Area": 7208.5907931399997 }, "geometry": { "type": "MultiPolygon", "coordinates": [ [ [ [ 116.307347903196955, 39.991061008268893, 0.0 ], [ 116.307421910901624, 39.99105882723785, 0.0 ], [ 116.307441152815016, 39.990859684838888, 0.0 ], [ 116.306670491726052, 39.99082752743368, 0.0 ], [ 116.306668159699541, 39.991024936250149, 0.0 ], [ 116.306742099132279, 39.991028859905569, 0.0 ], [ 116.306738113307361, 39.991253607694823, 0.0 ], [ 116.306644841231432, 39.99124914172112, 0.0 ], [ 116.306627352829452, 39.991454587910688, 0.0 ], [ 116.307393350763817, 39.991490317649635, 0.0 ], [ 116.307406176011099, 39.991293803510018, 0.0 ], [ 116.30734438269937, 39.991290230870788, 0.0 ], [ 116.307347903196955, 39.991061008268893, 0.0 ] ] ] ] } },
{ "type": "Feature", "properties": { "name": "遥感楼", "Shape_Leng": 213.222564898, "Shape_Area": 1746.2125542799999 }, "geometry": { "type": "MultiPolygon", "coordinates": [ [ [ [ 116.306193273409434, 39.991906624338078, 0.0 ], [ 116.306970547895574, 39.991924218961081, 0.0 ], [ 116.306976517200596, 39.991790447407105, 0.0 ], [ 116.306202731771066, 39.991762434975939, 0.0 ], [ 116.306193273409434, 39.991906624338078, 0.0 ] ] ] ] } },
{ "type": "Feature", "properties": { "name": null, "Shape_Leng": 66.266584817099996, "Shape_Area": 271.34364302900002 }, "geometry": { "type": "MultiPolygon", "coordinates": [ [ [ [ 116.306260562614128, 39.992319309792606, 0.0 ], [ 116.306397191877267, 39.992317128801744, 0.0 ], [ 116.306406997886867, 39.99219419072827, 0.0 ], [ 116.306272918940849, 39.99219419072827, 0.0 ], [ 116.306260562614128, 39.992319309792606, 0.0 ] ] ] ] } },
{ "type": "Feature", "properties": { "name": null, "Shape_Leng": 315.81896235200003, "Shape_Area": 5210.8116711599996 }, "geometry": { "type": "MultiPolygon", "coordinates": [ [ [ [ 116.306302576819945, 39.993044098269699, 0.0 ], [ 116.306153195073065, 39.993028746155012, 0.0 ], [ 116.306100365151181, 39.993166916439826, 0.0 ], [ 116.30689099219569, 39.993312064964115, 0.0 ], [ 116.306892813979076, 39.992759382634027, 0.0 ], [ 116.306313506622018, 39.992749612628167, 0.0 ], [ 116.306302576819945, 39.993044098269699, 0.0 ] ] ] ] } },
{ "type": "Feature", "properties": { "name": null, "Shape_Leng": 258.59396599500002, "Shape_Area": 3678.9459905 }, "geometry": { "type": "MultiPolygon", "coordinates": [ [ [ [ 116.307257158980192, 39.993457213179965, 0.0 ], [ 116.307594177230428, 39.993496291413649, 0.0 ], [ 116.307698015290754, 39.992889179190044, 0.0 ], [ 116.307275375915864, 39.992875222753185, 0.0 ], [ 116.307257158980192, 39.993457213179965, 0.0 ] ] ] ] } },
{ "type": "Feature", "properties": { "name": null, "Shape_Leng": 302.92090176200003, "Shape_Area": 5165.9460953999996 }, "geometry": { "type": "MultiPolygon", "coordinates": [ [ [ [ 116.308288253348167, 39.993561886527495, 0.0 ], [ 116.308406665675662, 39.992883597028573, 0.0 ], [ 116.307943947964375, 39.992844518444329, 0.0 ], [ 116.307823713853494, 39.993524204030741, 0.0 ], [ 116.308288253348167, 39.993561886527495, 0.0 ] ] ] ] } },
{ "type": "Feature", "properties": { "name": null, "Shape_Leng": 454.07777429100003, "Shape_Area": 4239.5175172 }, "geometry": { "type": "MultiPolygon", "coordinates": [ [ [ [ 116.30842306082792, 39.993514434822515, 0.0 ], [ 116.308424882611291, 39.99360236039908, 0.0 ], [ 116.308852987336337, 39.99365679121496, 0.0 ], [ 116.308916747060266, 39.992855683461443, 0.0 ], [ 116.308517789971248, 39.992844518444329, 0.0 ], [ 116.308510503735974, 39.99293244488333, 0.0 ], [ 116.30879651384771, 39.992943610574294, 0.0 ], [ 116.308785583147341, 39.993052471836201, 0.0 ], [ 116.308468603616163, 39.993045493978933, 0.0 ], [ 116.308432169744876, 39.993381847361938, 0.0 ], [ 116.30873639679227, 39.993401386503159, 0.0 ], [ 116.308727287875286, 39.993532578226556, 0.0 ], [ 116.30842306082792, 39.993514434822515, 0.0 ] ] ] ] } },
{ "type": "Feature", "properties": { "name": null, "Shape_Leng": 527.90260601399996, "Shape_Area": 7297.41370327 }, "geometry": { "type": "MultiPolygon", "coordinates": [ [ [ [ 116.308652996302982, 39.993970931671882, 0.0 ], [ 116.308424882611291, 39.994577913843919, 0.0 ], [ 116.308330152569638, 39.994577913843919, 0.0 ], [ 116.308138872499569, 39.995021722820375, 0.0 ], [ 116.308734575008899, 39.995041261492446, 0.0 ], [ 116.308832948617336, 39.993880094748718, 0.0 ], [ 116.30831375741738, 39.993807520784564, 0.0 ], [ 116.308224492725898, 39.993871720595465, 0.0 ], [ 116.308652996302982, 39.993970931671882, 0.0 ] ] ] ] } },
{ "type": "Feature", "properties": { "name": null, "Shape_Leng": 245.54671175, "Shape_Area": 2483.8293610199999 }, "geometry": { "type": "MultiPolygon", "coordinates": [ [ [ [ 116.307607876538498, 39.994964949082579, 0.0 ], [ 116.307945988038384, 39.994985492542824, 0.0 ], [ 116.307993790089597, 39.994836327790317, 0.0 ], [ 116.307787425509275, 39.994798813918003, 0.0 ], [ 116.30787836555875, 39.994491551748538, 0.0 ], [ 116.307752448705358, 39.994469221559129, 0.0 ], [ 116.307733794290186, 39.994513881930651, 0.0 ], [ 116.307613705706345, 39.994492445038546, 0.0 ], [ 116.307490120879464, 39.9948827744916, 0.0 ], [ 116.307624198927215, 39.994918502437187, 0.0 ], [ 116.307607876538498, 39.994964949082579, 0.0 ] ] ] ] } },
{ "type": "Feature", "properties": { "name": null, "Shape_Leng": 202.43123163800001, "Shape_Area": 1943.48823348 }, "geometry": { "type": "MultiPolygon", "coordinates": [ [ [ [ 116.307642853342372, 39.994375434959125, 0.0 ], [ 116.30787836555875, 39.994404017529405, 0.0 ], [ 116.307993790089597, 39.99389846103594, 0.0 ], [ 116.307820071185006, 39.993893101937296, 0.0 ], [ 116.307759443886496, 39.99387077155221, 0.0 ], [ 116.307642853342372, 39.994375434959125, 0.0 ] ] ] ] } },
{ "type": "Feature", "properties": { "name": null, "Shape_Leng": 408.54988221000002, "Shape_Area": 5453.2838332800002 }, "geometry": { "type": "MultiPolygon", "coordinates": [ [ [ [ 116.307220724210595, 39.994833313467815, 0.0 ], [ 116.307473944017843, 39.993843808120396, 0.0 ], [ 116.307424756764476, 39.993829851190384, 0.0 ], [ 116.307488517386687, 39.993677725973782, 0.0 ], [ 116.307258980763621, 39.993637252146804, 0.0 ], [ 116.306905566462859, 39.994781675625283, 0.0 ], [ 116.307220724210595, 39.994833313467815, 0.0 ] ] ] ] } },
{ "type": "Feature", "properties": { "name": null, "Shape_Leng": 427.14675981300002, "Shape_Area": 7863.3560710199999 }, "geometry": { "type": "MultiPolygon", "coordinates": [ [ [ [ 116.305628653507299, 39.989270559999916, 0.0 ], [ 116.305625806746164, 39.989510451747925, 0.0 ], [ 116.305400937769292, 39.989510451747925, 0.0 ], [ 116.305389552521376, 39.989626035840779, 0.0 ], [ 116.306226405972055, 39.989656567468259, 0.0 ], [ 116.306294720154469, 39.989037209320095, 0.0 ], [ 116.305389552521376, 39.989000134813864, 0.0 ], [ 116.30538101313627, 39.989264017423288, 0.0 ], [ 116.305628653507299, 39.989270559999916, 0.0 ] ] ] ] } },
{ "type": "Feature", "properties": { "name": null, "Shape_Leng": 134.017570482, "Shape_Area": 1010.89599495 }, "geometry": { "type": "MultiPolygon", "coordinates": [ [ [ [ 116.305267837986904, 39.990136871856208, 0.0 ], [ 116.305473693222453, 39.990141059161878, 0.0 ], [ 116.305491910158082, 39.989842374368237, 0.0 ], [ 116.305286055820844, 39.989829812395428, 0.0 ], [ 116.305267837986904, 39.990136871856208, 0.0 ] ] ] ] } },
{ "type": "Feature", "properties": { "name": null, "Shape_Leng": 185.861511643, "Shape_Area": 1692.9967299100001 }, "geometry": { "type": "MultiPolygon", "coordinates": [ [ [ [ 116.30550466264188, 39.990004278527209, 0.0 ], [ 116.306120403870239, 39.990026610176429, 0.0 ], [ 116.306127691003823, 39.989859122973463, 0.0 ], [ 116.305522879577538, 39.989829812395428, 0.0 ], [ 116.30550466264188, 39.990004278527209, 0.0 ] ] ] ] } },
{ "type": "Feature", "properties": { "name": null, "Shape_Leng": 132.35363416199999, "Shape_Area": 987.53738954899995 }, "geometry": { "type": "MultiPolygon", "coordinates": [ [ [ [ 116.306131334570622, 39.990167578070476, 0.0 ], [ 116.306339010691261, 39.990168973838422, 0.0 ], [ 116.306357228525187, 39.989868893392782, 0.0 ], [ 116.306155016856437, 39.989871684252613, 0.0 ], [ 116.306131334570622, 39.990167578070476, 0.0 ] ] ] ] } },
{ "type": "Feature", "properties": { "name": null, "Shape_Leng": 231.86952595100001, "Shape_Area": 2147.07516063 }, "geometry": { "type": "MultiPolygon", "coordinates": [ [ [ [ 116.305362349737933, 39.990469332393502, 0.0 ], [ 116.306198301280105, 39.990500595936886, 0.0 ], [ 116.306206462474435, 39.990343382667767, 0.0 ], [ 116.305377506113402, 39.990308545673585, 0.0 ], [ 116.305362349737933, 39.990469332393502, 0.0 ] ] ] ] } },
{ "type": "Feature", "properties": { "name": null, "Shape_Leng": 234.61873096799999, "Shape_Area": 2227.55722246 }, "geometry": { "type": "MultiPolygon", "coordinates": [ [ [ [ 116.305327372035734, 39.99095258293039, 0.0 ], [ 116.306164489591112, 39.990982953604949, 0.0 ], [ 116.306173816798704, 39.990817701403913, 0.0 ], [ 116.30533320210192, 39.990790010671198, 0.0 ], [ 116.305327372035734, 39.99095258293039, 0.0 ] ] ] ] } },
{ "type": "Feature", "properties": { "name": null, "Shape_Leng": 133.659363418, "Shape_Area": 1003.85778266 }, "geometry": { "type": "MultiPolygon", "coordinates": [ [ [ [ 116.305179302727424, 39.991417071492627, 0.0 ], [ 116.305383335281306, 39.991425110775957, 0.0 ], [ 116.305398492555057, 39.991121406765103, 0.0 ], [ 116.305193293987969, 39.991115154114397, 0.0 ], [ 116.305179302727424, 39.991417071492627, 0.0 ] ] ] ] } },
{ "type": "Feature", "properties": { "name": null, "Shape_Leng": 182.42037803100001, "Shape_Area": 1568.1062411299999 }, "geometry": { "type": "MultiPolygon", "coordinates": [ [ [ [ 116.305408985775927, 39.991424217445832, 0.0 ], [ 116.306021084335768, 39.991437616020058, 0.0 ], [ 116.306029245530141, 39.991276832267644, 0.0 ], [ 116.305415980957036, 39.991268792966864, 0.0 ], [ 116.305408985775927, 39.991424217445832, 0.0 ] ] ] ] } },
{ "type": "Feature", "properties": { "name": null, "Shape_Leng": 130.101123589, "Shape_Area": 953.84844424400001 }, "geometry": { "type": "MultiPolygon", "coordinates": [ [ [ [ 116.306043235892375, 39.991441189339795, 0.0 ], [ 116.306243771304807, 39.991443869329458, 0.0 ], [ 116.306265923759753, 39.991153564032011, 0.0 ], [ 116.306065388347278, 39.991144631382873, 0.0 ], [ 116.306043235892375, 39.991441189339795, 0.0 ] ] ] ] } },
{ "type": "Feature", "properties": { "name": null, "Shape_Leng": 241.191118311, "Shape_Area": 1937.17189512 }, "geometry": { "type": "MultiPolygon", "coordinates": [ [ [ [ 116.305384428530999, 39.991578637437286, 0.0 ], [ 116.305391715664555, 39.991475356103322, 0.0 ], [ 116.305233225899002, 39.99146977313805, 0.0 ], [ 116.305215008065019, 39.991705644764131, 0.0 ], [ 116.305985597288796, 39.991729371593181, 0.0 ], [ 116.306000170657654, 39.991593989877977, 0.0 ], [ 116.305384428530999, 39.991578637437286, 0.0 ] ] ] ] } },
{ "type": "Feature", "properties": { "name": null, "Shape_Leng": 101.438345209, "Shape_Area": 612.76644675099999 }, "geometry": { "type": "MultiPolygon", "coordinates": [ [ [ [ 116.304899850317298, 39.991619112484138, 0.0 ], [ 116.305174930626961, 39.991623299698986, 0.0 ], [ 116.305184039543917, 39.991483729862146, 0.0 ], [ 116.304905315667483, 39.991485125603212, 0.0 ], [ 116.304899850317298, 39.991619112484138, 0.0 ] ] ] ] } },
{ "type": "Feature", "properties": { "name": null, "Shape_Leng": 100.014515429, "Shape_Area": 599.82957130700004 }, "geometry": { "type": "MultiPolygon", "coordinates": [ [ [ [ 116.303690227464699, 39.989706988912857, 0.0 ], [ 116.303958020640806, 39.98971396711125, 0.0 ], [ 116.303965306876066, 39.989572998281069, 0.0 ], [ 116.303693871031498, 39.989572998281069, 0.0 ], [ 116.303690227464699, 39.989706988912857, 0.0 ] ] ] ] } },
{ "type": "Feature", "properties": { "name": null, "Shape_Leng": 201.304372027, "Shape_Area": 1808.39430051 }, "geometry": { "type": "MultiPolygon", "coordinates": [ [ [ [ 116.304129261991832, 39.989677678269544, 0.0 ], [ 116.304817872759401, 39.989706988912857, 0.0 ], [ 116.304845198612014, 39.989546479141644, 0.0 ], [ 116.304149301609186, 39.989517169117725, 0.0 ], [ 116.304129261991832, 39.989677678269544, 0.0 ] ] ] ] } },
{ "type": "Feature", "properties": { "name": null, "Shape_Leng": 406.21955045800001, "Shape_Area": 3480.8254911399999 }, "geometry": { "type": "MultiPolygon", "coordinates": [ [ [ [ 116.306615912784324, 39.995981903851757, 0.0 ], [ 116.306827232471775, 39.995997255302683, 0.0 ], [ 116.306837549622799, 39.995867753693652, 0.0 ], [ 116.306872888447742, 39.99586921678786, 0.0 ], [ 116.306919095989343, 39.995517956973913, 0.0 ], [ 116.306954878582061, 39.995518801388663, 0.0 ], [ 116.306976661829381, 39.995349929926576, 0.0 ], [ 116.307136924869312, 39.995069173478122, 0.0 ], [ 116.306870953476633, 39.995048239834034, 0.0 ], [ 116.306849092974204, 39.995136163435973, 0.0 ], [ 116.306790797702163, 39.995137559102396, 0.0 ], [ 116.30671610727785, 39.995180823371371, 0.0 ], [ 116.306686959641837, 39.995242230562809, 0.0 ], [ 116.306705176577466, 39.995300846372935, 0.0 ], [ 116.306741611347093, 39.995337132227114, 0.0 ], [ 116.306805371969332, 39.995351088849105, 0.0 ], [ 116.306779867900076, 39.995500419020438, 0.0 ], [ 116.306688781425208, 39.995496232731533, 0.0 ], [ 116.306676029839736, 39.99561067255194, 0.0 ], [ 116.306770758983106, 39.995616255178724, 0.0 ], [ 116.306758006499351, 39.995679057634042, 0.0 ], [ 116.306665099139394, 39.995673475012396, 0.0 ], [ 116.306646882203722, 39.995789310188954, 0.0 ], [ 116.306737967780293, 39.99579907975999, 0.0 ], [ 116.306723394411435, 39.995859090743856, 0.0 ], [ 116.306637773286766, 39.995853508136918, 0.0 ], [ 116.306615912784324, 39.995981903851757, 0.0 ] ] ] ] } },
{ "type": "Feature", "properties": { "name": null, "Shape_Leng": 285.51732425599999, "Shape_Area": 3612.5688790200002 }, "geometry": { "type": "MultiPolygon", "coordinates": [ [ [ [ 116.306382732594443, 39.996914159474883, 0.0 ], [ 116.30642098824913, 39.996919741995114, 0.0 ], [ 116.306422810032544, 39.99695881824757, 0.0 ], [ 116.30660316030054, 39.996967191334051, 0.0 ], [ 116.306607191041252, 39.99693549650884, 0.0 ], [ 116.306632307936553, 39.996937884494507, 0.0 ], [ 116.306637924203756, 39.996908162669442, 0.0 ], [ 116.306679672508253, 39.996907181323913, 0.0 ], [ 116.306781689683476, 39.996223342472447, 0.0 ], [ 116.306488392438155, 39.996201012849276, 0.0 ], [ 116.30648110530457, 39.996261023479953, 0.0 ], [ 116.306461066585513, 39.996262419123383, 0.0 ], [ 116.306382732594443, 39.996914159474883, 0.0 ] ] ] ] } },
{ "type": "Feature", "properties": { "name": null, "Shape_Leng": 91.209089197300003, "Shape_Area": 519.59523934100002 }, "geometry": { "type": "MultiPolygon", "coordinates": [ [ [ [ 116.305118457138306, 39.995164076071077, 0.0 ], [ 116.305140317640763, 39.99501474447608, 0.0 ], [ 116.304932641520125, 39.994992414457734, 0.0 ], [ 116.304912602801068, 39.995150120099083, 0.0 ], [ 116.305118457138306, 39.995164076071077, 0.0 ] ] ] ] } },
{ "type": "Feature", "properties": { "name": null, "Shape_Leng": 104.99247429499999, "Shape_Area": 583.86839590199997 }, "geometry": { "type": "MultiPolygon", "coordinates": [ [ [ [ 116.305014071105674, 39.99496830749937, 0.0 ], [ 116.305339404070651, 39.994988314850822, 0.0 ], [ 116.305348358477389, 39.994880273569137, 0.0 ], [ 116.305020786910703, 39.994856264295734, 0.0 ], [ 116.305014071105674, 39.99496830749937, 0.0 ] ] ] ] } },
{ "type": "Feature", "properties": { "name": null, "Shape_Leng": 83.505866928800003, "Shape_Area": 410.59630063100002 }, "geometry": { "type": "MultiPolygon", "coordinates": [ [ [ [ 116.305287172426759, 39.995210113760024, 0.0 ], [ 116.305428945443211, 39.995218688014681, 0.0 ], [ 116.305455807765156, 39.995042049480766, 0.0 ], [ 116.305313288248712, 39.995032903310168, 0.0 ], [ 116.305287172426759, 39.995210113760024, 0.0 ] ] ] ] } },
{ "type": "Feature", "properties": { "name": null, "Shape_Leng": 120.46133387499999, "Shape_Area": 756.49497456400002 }, "geometry": { "type": "MultiPolygon", "coordinates": [ [ [ [ 116.305601213568622, 39.996531768828447, 0.0 ], [ 116.305579353066193, 39.996653185091212, 0.0 ], [ 116.305961914104671, 39.996681096418079, 0.0 ], [ 116.305976488371812, 39.996558284567577, 0.0 ], [ 116.305601213568622, 39.996531768828447, 0.0 ] ] ] ] } },
{ "type": "Feature", "properties": { "name": null, "Shape_Leng": 134.99678237000001, "Shape_Area": 845.65241544800006 }, "geometry": { "type": "MultiPolygon", "coordinates": [ [ [ [ 116.305087487718879, 39.996446637614483, 0.0 ], [ 116.305080201483591, 39.996562471479621, 0.0 ], [ 116.305531988494494, 39.996601547936514, 0.0 ], [ 116.305542918296595, 39.996488505415307, 0.0 ], [ 116.305087487718879, 39.996446637614483, 0.0 ] ] ] ] } },
{ "type": "Feature", "properties": { "name": null, "Shape_Leng": 147.92378582699999, "Shape_Area": 905.34540915599996 }, "geometry": { "type": "MultiPolygon", "coordinates": [ [ [ [ 116.305592104651666, 39.996506648029317, 0.0 ], [ 116.305717804112703, 39.996516416809477, 0.0 ], [ 116.30572873391479, 39.996420121143792, 0.0 ], [ 116.305783385620046, 39.99642151678399, 0.0 ], [ 116.305794316320416, 39.996378253301003, 0.0 ], [ 116.305879936546773, 39.996388022787784, 0.0 ], [ 116.305889045463729, 39.996307078322275, 0.0 ], [ 116.305522879577538, 39.996269397340185, 0.0 ], [ 116.305501019075095, 39.996397791584968, 0.0 ], [ 116.305604857135407, 39.996408956709395, 0.0 ], [ 116.305592104651666, 39.996506648029317, 0.0 ] ] ] ] } },
{ "type": "Feature", "properties": { "name": null, "Shape_Leng": 202.79596211800001, "Shape_Area": 1757.1697889300001 }, "geometry": { "type": "MultiPolygon", "coordinates": [ [ [ [ 116.305768812251145, 39.9962512546632, 0.0 ], [ 116.30599288352407, 39.996272187938544, 0.0 ], [ 116.306020209376712, 39.996046101618681, 0.0 ], [ 116.306071217515154, 39.996047496578299, 0.0 ], [ 116.306083969998923, 39.995926079238671, 0.0 ], [ 116.305781563836618, 39.99590095890489, 0.0 ], [ 116.305772455817959, 39.995933057489843, 0.0 ], [ 116.305621252287679, 39.995926079238671, 0.0 ], [ 116.30561214426902, 39.996047496578299, 0.0 ], [ 116.305801602555675, 39.996068430604304, 0.0 ], [ 116.305768812251145, 39.9962512546632, 0.0 ] ] ] ] } },
{ "type": "Feature", "properties": { "name": null, "Shape_Leng": 119.71100077, "Shape_Area": 720.09810367 }, "geometry": { "type": "MultiPolygon", "coordinates": [ [ [ [ 116.304938106870281, 39.995966551709181, 0.0 ], [ 116.305322489692131, 39.996007024155759, 0.0 ], [ 116.305342529309527, 39.995892584999474, 0.0 ], [ 116.304958145589339, 39.995853508136918, 0.0 ], [ 116.304938106870281, 39.995966551709181, 0.0 ] ] ] ] } },
{ "type": "Feature", "properties": { "name": null, "Shape_Leng": 109.840866913, "Shape_Area": 749.606771299 }, "geometry": { "type": "MultiPolygon", "coordinates": [ [ [ [ 116.304967254506323, 39.99621217731768, 0.0 ], [ 116.30519861291279, 39.996238693869103, 0.0 ], [ 116.305231404115617, 39.996032145138678, 0.0 ], [ 116.305007331944381, 39.996018189344078, 0.0 ], [ 116.304967254506323, 39.99621217731768, 0.0 ] ] ] ] } },
{ "type": "Feature", "properties": { "name": null, "Shape_Leng": 96.088137374300004, "Shape_Area": 526.09279911700003 }, "geometry": { "type": "MultiPolygon", "coordinates": [ [ [ [ 116.305027371561764, 39.996383835865032, 0.0 ], [ 116.305304272756501, 39.996406165428439, 0.0 ], [ 116.305318847023671, 39.996293121895668, 0.0 ], [ 116.305040123147208, 39.996265210410229, 0.0 ], [ 116.305027371561764, 39.996383835865032, 0.0 ] ] ] ] } },
{ "type": "Feature", "properties": { "name": null, "Shape_Leng": 256.17755362399998, "Shape_Area": 2569.18553247 }, "geometry": { "type": "MultiPolygon", "coordinates": [ [ [ [ 116.305890867247157, 39.995482276139157, 0.0 ], [ 116.306180520925693, 39.995510188632792, 0.0 ], [ 116.306196916976248, 39.995384583353868, 0.0 ], [ 116.306165947556792, 39.995379000708148, 0.0 ], [ 116.306218777478676, 39.995111042123483, 0.0 ], [ 116.30624792511469, 39.995113833457324, 0.0 ], [ 116.306273429183932, 39.994986832468165, 0.0 ], [ 116.305858076044345, 39.994944963746661, 0.0 ], [ 116.305828928408317, 39.995081734487336, 0.0 ], [ 116.305976488371812, 39.995094294806066, 0.0 ], [ 116.305890867247157, 39.995482276139157, 0.0 ] ] ] ] } },
{ "type": "Feature", "properties": { "name": null, "Shape_Leng": 134.58777349600001, "Shape_Area": 1104.3303863799999 }, "geometry": { "type": "MultiPolygon", "coordinates": [ [ [ [ 116.305819820389658, 39.995826991435933, 0.0 ], [ 116.306073039298568, 39.99584513422564, 0.0 ], [ 116.30611676120175, 39.995577178158058, 0.0 ], [ 116.305859897827716, 39.995564617239978, 0.0 ], [ 116.305819820389658, 39.995826991435933, 0.0 ] ] ] ] } },
{ "type": "Feature", "properties": { "name": null, "Shape_Leng": 281.809985278, "Shape_Area": 4113.7607805999996 }, "geometry": { "type": "MultiPolygon", "coordinates": [ [ [ [ 116.305355280894958, 39.995455759982242, 0.0 ], [ 116.305235047682402, 39.995444594701979, 0.0 ], [ 116.305218651631833, 39.995578573127318, 0.0 ], [ 116.30515124834109, 39.995574386843153, 0.0 ], [ 116.305118457138306, 39.995779541304721, 0.0 ], [ 116.305739664615132, 39.995824200131189, 0.0 ], [ 116.305787029186831, 39.995542287401413, 0.0 ], [ 116.305717804112703, 39.995539496085073, 0.0 ], [ 116.305759703334189, 39.995345506200643, 0.0 ], [ 116.3053789631808, 39.995309220350961, 0.0 ], [ 116.305355280894958, 39.995455759982242, 0.0 ] ] ] ] } },
{ "type": "Feature", "properties": { "name": "第一体育馆", "Shape_Leng": 219.17774586100001, "Shape_Area": 2066.57304927 }, "geometry": { "type": "MultiPolygon", "coordinates": [ [ [ [ 116.305309738106715, 39.994120145112717, 0.0 ], [ 116.30525872996823, 39.994251335455516, 0.0 ], [ 116.305457297171884, 39.99429739096496, 0.0 ], [ 116.305650399923707, 39.993739134516716, 0.0 ], [ 116.305453653605113, 39.993702847813495, 0.0 ], [ 116.305413576167012, 39.993799147310689, 0.0 ], [ 116.305389893881184, 39.993794960229224, 0.0 ], [ 116.305273303337117, 39.994114562363642, 0.0 ], [ 116.305309738106715, 39.994120145112717, 0.0 ] ] ] ] } },
{ "type": "Feature", "properties": { "name": null, "Shape_Leng": 169.05587154700001, "Shape_Area": 1458.4378231000001 }, "geometry": { "type": "MultiPolygon", "coordinates": [ [ [ [ 116.301971960531972, 39.9881870867355, 0.0 ], [ 116.302312819978312, 39.988203035290553, 0.0 ], [ 116.302331034219023, 39.987965799117376, 0.0 ], [ 116.302115069343245, 39.987965799117376, 0.0 ], [ 116.302115069343245, 39.987874094556446, 0.0 ], [ 116.301992776293744, 39.987874094556446, 0.0 ], [ 116.301971960531972, 39.9881870867355, 0.0 ] ] ] ] } },
{ "type": "Feature", "properties": { "name": null, "Shape_Leng": 175.56883133599999, "Shape_Area": 1801.0299415500001 }, "geometry": { "type": "MultiPolygon", "coordinates": [ [ [ [ 116.301501002574597, 39.988677504477053, 0.0 ], [ 116.30178722019717, 39.98867351736633, 0.0 ], [ 116.30179762807802, 39.988292746187575, 0.0 ], [ 116.301495798634178, 39.988300720453203, 0.0 ], [ 116.301501002574597, 39.988677504477053, 0.0 ] ] ] ] } },
{ "type": "Feature", "properties": { "name": null, "Shape_Leng": 109.63754812099999, "Shape_Area": 590.26215908799998 }, "geometry": { "type": "MultiPolygon", "coordinates": [ [ [ [ 116.302510570613407, 39.987810300006686, 0.0 ], [ 116.302815001578352, 39.987816280404068, 0.0 ], [ 116.302815001578352, 39.987738530378678, 0.0 ], [ 116.302815001578352, 39.987710620215083, 0.0 ], [ 116.302643271543815, 39.987708626975675, 0.0 ], [ 116.302653679424665, 39.987668754604194, 0.0 ], [ 116.302518376074886, 39.987670748533056, 0.0 ], [ 116.302510570613407, 39.987810300006686, 0.0 ] ] ] ] } },
{ "type": "Feature", "properties": { "name": null, "Shape_Leng": 96.196114319599999, "Shape_Area": 404.42839613500001 }, "geometry": { "type": "MultiPolygon", "coordinates": [ [ [ [ 116.303202696488682, 39.987876087791022, 0.0 ], [ 116.303538351994575, 39.987882068870945, 0.0 ], [ 116.303538351994575, 39.987808306081888, 0.0 ], [ 116.30320529890804, 39.987800331758734, 0.0 ], [ 116.303202696488682, 39.987876087791022, 0.0 ] ] ] ] } },
{ "type": "Feature", "properties": { "name": null, "Shape_Leng": 95.329559047999993, "Shape_Area": 556.11649364899995 }, "geometry": { "type": "MultiPolygon", "coordinates": [ [ [ [ 116.302554803657998, 39.98820502851553, 0.0 ], [ 116.302734340950664, 39.988207022428739, 0.0 ], [ 116.302734340950664, 39.98801563884517, 0.0 ], [ 116.302546998196462, 39.988021619912871, 0.0 ], [ 116.302554803657998, 39.98820502851553, 0.0 ] ] ] ] } },
{ "type": "Feature", "properties": { "name": null, "Shape_Leng": 93.059598122099999, "Shape_Area": 539.42176284200002 }, "geometry": { "type": "MultiPolygon", "coordinates": [ [ [ [ 116.302958110389639, 39.988189079960961, 0.0 ], [ 116.303168871324971, 39.988195061013514, 0.0 ], [ 116.303158463444049, 39.988035574588444, 0.0 ], [ 116.302952906449164, 39.988027600291815, 0.0 ], [ 116.302958110389639, 39.988189079960961, 0.0 ] ] ] ] } },
{ "type": "Feature", "properties": { "name": null, "Shape_Leng": 109.21935852599999, "Shape_Area": 696.05572095100001 }, "geometry": { "type": "MultiPolygon", "coordinates": [ [ [ [ 116.302981528570754, 39.988627665232151, 0.0 ], [ 116.303163667384524, 39.988633646246306, 0.0 ], [ 116.303166268905585, 39.988394418349152, 0.0 ], [ 116.30298413099014, 39.988394418349152, 0.0 ], [ 116.302981528570754, 39.988627665232151, 0.0 ] ] ] ] } },
{ "type": "Feature", "properties": { "name": null, "Shape_Leng": 212.00952927, "Shape_Area": 1409.4245318799999 }, "geometry": { "type": "MultiPolygon", "coordinates": [ [ [ [ 116.301729326472042, 39.988882217832199, 0.0 ], [ 116.301741522898638, 39.989072228663183, 0.0 ], [ 116.302379820823802, 39.989075343725794, 0.0 ], [ 116.302375755048814, 39.988932056891329, 0.0 ], [ 116.302245656537792, 39.988932056891329, 0.0 ], [ 116.30224159076279, 39.988988125359299, 0.0 ], [ 116.301952934214256, 39.988972551401261, 0.0 ], [ 116.301961064865878, 39.988891563045698, 0.0 ], [ 116.301729326472042, 39.988882217832199, 0.0 ] ] ] ] } },
{ "type": "Feature", "properties": { "name": null, "Shape_Leng": 128.29935862299999, "Shape_Area": 749.57635549500003 }, "geometry": { "type": "MultiPolygon", "coordinates": [ [ [ [ 116.302505678388343, 39.989103328352044, 0.0 ], [ 116.302737150880859, 39.989109707138375, 0.0 ], [ 116.30275047289652, 39.988880049808508, 0.0 ], [ 116.302717167857352, 39.98887877445997, 0.0 ], [ 116.302723828865211, 39.98883922212503, 0.0 ], [ 116.302592272388495, 39.98884304954931, 0.0 ], [ 116.302580615849337, 39.989034430814797, 0.0 ], [ 116.302509009341406, 39.989040810295791, 0.0 ], [ 116.302505678388343, 39.989103328352044, 0.0 ] ] ] ] } },
{ "type": "Feature", "properties": { "name": null, "Shape_Leng": 106.54761675100001, "Shape_Area": 493.69720894199997 }, "geometry": { "type": "MultiPolygon", "coordinates": [ [ [ [ 116.302916999888964, 39.98911481057992, 0.0 ], [ 116.303061877483032, 39.989110983170832, 0.0 ], [ 116.303061877483032, 39.98907015562537, 0.0 ], [ 116.303191768483217, 39.989067603558816, 0.0 ], [ 116.303190103006699, 39.988952774919646, 0.0 ], [ 116.302978614435972, 39.988964257861113, 0.0 ], [ 116.302981944490753, 39.989057396668287, 0.0 ], [ 116.302908673404588, 39.98905994804695, 0.0 ], [ 116.302916999888964, 39.98911481057992, 0.0 ] ] ] ] } },
{ "type": "Feature", "properties": { "name": null, "Shape_Leng": 88.756778228300007, "Shape_Area": 481.55137472299998 }, "geometry": { "type": "MultiPolygon", "coordinates": [ [ [ [ 116.302111492251797, 39.98867351736633, 0.0 ], [ 116.302339164870673, 39.988664172811262, 0.0 ], [ 116.302343230645633, 39.988539574950643, 0.0 ], [ 116.302115557128459, 39.988536459863546, 0.0 ], [ 116.302111492251797, 39.98867351736633, 0.0 ] ] ] ] } },
{ "type": "Feature", "properties": { "name": null, "Shape_Leng": 150.01433549000001, "Shape_Area": 933.78723996799999 }, "geometry": { "type": "MultiPolygon", "coordinates": [ [ [ [ 116.301942818285838, 39.988539390495646, 0.0 ], [ 116.302041069723401, 39.988540666538796, 0.0 ], [ 116.302049396207778, 39.988443698892311, 0.0 ], [ 116.302334155864642, 39.988441147490683, 0.0 ], [ 116.302339152294252, 39.988319938250669, 0.0 ], [ 116.301942818285838, 39.988322490345162, 0.0 ], [ 116.301942818285838, 39.988539390495646, 0.0 ] ] ] ] } },
{ "type": "Feature", "properties": { "name": null, "Shape_Leng": 93.828848220899999, "Shape_Area": 471.25721767599998 }, "geometry": { "type": "MultiPolygon", "coordinates": [ [ [ [ 116.303603089085513, 39.98911225920331, 0.0 ], [ 116.303601423608981, 39.989155638786961, 0.0 ], [ 116.303703005101326, 39.989154362755286, 0.0 ], [ 116.303699675046559, 39.988996154604585, 0.0 ], [ 116.303486520999314, 39.988992327188889, 0.0 ], [ 116.303491516530613, 39.989109707138375, 0.0 ], [ 116.303603089085513, 39.98911225920331, 0.0 ] ] ] ] } },
{ "type": "Feature", "properties": { "name": null, "Shape_Leng": 103.332958765, "Shape_Area": 417.28953850300002 }, "geometry": { "type": "MultiPolygon", "coordinates": [ [ [ [ 116.303388269561736, 39.988817532236183, 0.0 ], [ 116.303568118569842, 39.988812428772377, 0.0 ], [ 116.303571449522892, 39.988769048970759, 0.0 ], [ 116.303651381616902, 39.988769048970759, 0.0 ], [ 116.30365304709342, 39.988697599704253, 0.0 ], [ 116.30357644505419, 39.988700151096353, 0.0 ], [ 116.30357644505419, 39.988661874698835, 0.0 ], [ 116.303453215061808, 39.988663150739697, 0.0 ], [ 116.303459876069667, 39.988776703827007, 0.0 ], [ 116.30339326599136, 39.988776703827007, 0.0 ], [ 116.303388269561736, 39.988817532236183, 0.0 ] ] ] ] } },
{ "type": "Feature", "properties": { "name": null, "Shape_Leng": 201.735136934, "Shape_Area": 2103.4841556000001 }, "geometry": { "type": "MultiPolygon", "coordinates": [ [ [ [ 116.303344972561675, 39.988506217495114, 0.0 ], [ 116.303824569617134, 39.988512597025434, 0.0 ], [ 116.303824569617134, 39.988289317239236, 0.0 ], [ 116.303679691124742, 39.988294420742136, 0.0 ], [ 116.30368135660126, 39.988225523077247, 0.0 ], [ 116.30362973311685, 39.988225523077247, 0.0 ], [ 116.303631398593396, 39.988182142214647, 0.0 ], [ 116.303473198085314, 39.988184694314285, 0.0 ], [ 116.303469868030589, 39.98824593710544, 0.0 ], [ 116.303349968991284, 39.98824593710544, 0.0 ], [ 116.303344972561675, 39.988506217495114, 0.0 ] ] ] ] } },
{ "type": "Feature", "properties": { "name": null, "Shape_Leng": 179.10446011400001, "Shape_Area": 1747.5036349100001 }, "geometry": { "type": "MultiPolygon", "coordinates": [ [ [ [ 116.301811262707432, 39.989576674936515, 0.0 ], [ 116.302355804364666, 39.989576674936515, 0.0 ], [ 116.302364130849043, 39.989382743135501, 0.0 ], [ 116.301816258238716, 39.989375088347167, 0.0 ], [ 116.301811262707432, 39.989576674936515, 0.0 ] ] ] ] } },
{ "type": "Feature", "properties": { "name": null, "Shape_Leng": 148.895811678, "Shape_Area": 1296.8080324699999 }, "geometry": { "type": "MultiPolygon", "coordinates": [ [ [ [ 116.300561688180906, 39.990954114265691, 0.0 ], [ 116.300983209153259, 39.990960094387894, 0.0 ], [ 116.300983209153259, 39.990764731529019, 0.0 ], [ 116.300566892121353, 39.990766725367514, 0.0 ], [ 116.300561688180906, 39.990954114265691, 0.0 ] ] ] ] } },
{ "type": "Feature", "properties": { "name": null, "Shape_Leng": 142.303766096, "Shape_Area": 959.58002948900003 }, "geometry": { "type": "MultiPolygon", "coordinates": [ [ [ [ 116.300473221193414, 39.990734829450759, 0.0 ], [ 116.300644952126262, 39.99073084246011, 0.0 ], [ 116.300650156066737, 39.990370017811436, 0.0 ], [ 116.300496639374558, 39.990366030799493, 0.0 ], [ 116.300473221193414, 39.990734829450759, 0.0 ] ] ] ] } },
{ "type": "Feature", "properties": { "name": null, "Shape_Leng": 208.264536488, "Shape_Area": 2643.94739334 }, "geometry": { "type": "MultiPolygon", "coordinates": [ [ [ [ 116.300589490140638, 39.990295134489429, 0.0 ], [ 116.300988087903562, 39.990301667331771, 0.0 ], [ 116.300990219605737, 39.989889311747604, 0.0 ], [ 116.300600147753173, 39.989878696158506, 0.0 ], [ 116.300589490140638, 39.990295134489429, 0.0 ] ] ] ] } },
{ "type": "Feature", "properties": { "name": null, "Shape_Leng": 209.99713952900001, "Shape_Area": 2039.6494968899999 }, "geometry": { "type": "MultiPolygon", "coordinates": [ [ [ [ 116.303992495286465, 39.991615473103273, 0.0 ], [ 116.30470442991205, 39.991644051322695, 0.0 ], [ 116.304717219226774, 39.991470131020463, 0.0 ], [ 116.304007416303349, 39.991435836930705, 0.0 ], [ 116.303992495286465, 39.991615473103273, 0.0 ] ] ] ] } },
{ "type": "Feature", "properties": { "name": null, "Shape_Leng": 161.27889995800001, "Shape_Area": 1461.02056386 }, "geometry": { "type": "MultiPolygon", "coordinates": [ [ [ [ 116.302498285253563, 39.991831035886698, 0.0 ], [ 116.302746609242504, 39.991821237530523, 0.0 ], [ 116.302750872646826, 39.991461965795303, 0.0 ], [ 116.302504679461762, 39.991459515676993, 0.0 ], [ 116.302498285253563, 39.991831035886698, 0.0 ] ] ] ] } },
{ "type": "Feature", "properties": { "name": null, "Shape_Leng": 94.5995853318, "Shape_Area": 558.92603476399995 }, "geometry": { "type": "MultiPolygon", "coordinates": [ [ [ [ 116.301334274359533, 39.991855198322725, 0.0 ], [ 116.301552252359855, 39.99185950802832, 0.0 ], [ 116.301549439734728, 39.991693584167692, 0.0 ], [ 116.301345524860139, 39.991693584167692, 0.0 ], [ 116.301334274359533, 39.991855198322725, 0.0 ] ] ] ] } },
{ "type": "Feature", "properties": { "name": null, "Shape_Leng": 95.241906027799999, "Shape_Area": 566.01238787399996 }, "geometry": { "type": "MultiPolygon", "coordinates": [ [ [ [ 116.301338492848103, 39.991522273090013, 0.0 ], [ 116.301564909622215, 39.991524427953301, 0.0 ], [ 116.301562096997088, 39.991361735237312, 0.0 ], [ 116.301352555973907, 39.991363890105717, 0.0 ], [ 116.301338492848103, 39.991522273090013, 0.0 ] ] ] ] } },
{ "type": "Feature", "properties": { "name": null, "Shape_Leng": 212.60561010699999, "Shape_Area": 2197.22332271 }, "geometry": { "type": "MultiPolygon", "coordinates": [ [ [ [ 116.299525754588501, 39.992398219770763, 0.0 ], [ 116.300227505013737, 39.992405761351286, 0.0 ], [ 116.300226099150322, 39.99220967104101, 0.0 ], [ 116.29952294196336, 39.992207516199286, 0.0 ], [ 116.299525754588501, 39.992398219770763, 0.0 ] ] ] ] } },
{ "type": "Feature", "properties": { "name": null, "Shape_Leng": 202.58725446299999, "Shape_Area": 2053.1999488900001 }, "geometry": { "type": "MultiPolygon", "coordinates": [ [ [ [ 116.299514504087895, 39.992973558484579, 0.0 ], [ 116.300171252510623, 39.992976791054929, 0.0 ], [ 116.30017406513582, 39.992786089098892, 0.0 ], [ 116.299514504087895, 39.99277854756042, 0.0 ], [ 116.299514504087895, 39.992973558484579, 0.0 ] ] ] ] } },
{ "type": "Feature", "properties": { "name": null, "Shape_Leng": 207.767529271, "Shape_Area": 2114.51681882 }, "geometry": { "type": "MultiPolygon", "coordinates": [ [ [ [ 116.299503253587289, 39.993836558500369, 0.0 ], [ 116.300185315636426, 39.993835480761099, 0.0 ], [ 116.300192347648476, 39.993649091483526, 0.0 ], [ 116.299507472974184, 39.99364047229794, 0.0 ], [ 116.299503253587289, 39.993836558500369, 0.0 ] ] ] ] } },
{ "type": "Feature", "properties": { "name": null, "Shape_Leng": 150.294089044, "Shape_Area": 1250.8625930600001 }, "geometry": { "type": "MultiPolygon", "coordinates": [ [ [ [ 116.300285164278577, 39.994208259166676, 0.0 ], [ 116.30050876842752, 39.994210413945275, 0.0 ], [ 116.300505955802379, 39.993862415979578, 0.0 ], [ 116.300282351653408, 39.993864570769034, 0.0 ], [ 116.300285164278577, 39.994208259166676, 0.0 ] ] ] ] } },
{ "type": "Feature", "properties": { "name": null, "Shape_Leng": 184.95243322900001, "Shape_Area": 1539.28602525 }, "geometry": { "type": "MultiPolygon", "coordinates": [ [ [ [ 116.300806994728802, 39.994350541851283, 0.0 ], [ 116.30100475704198, 39.994350541851283, 0.0 ], [ 116.301013547057039, 39.993865715264391, 0.0 ], [ 116.30082017840391, 39.993862348534854, 0.0 ], [ 116.300806994728802, 39.994350541851283, 0.0 ] ] ] ] } },
{ "type": "Feature", "properties": { "name": null, "Shape_Leng": 176.664583314, "Shape_Area": 1392.2102215 }, "geometry": { "type": "MultiPolygon", "coordinates": [ [ [ [ 116.301501361900705, 39.994332023591916, 0.0 ], [ 116.301672755965342, 39.994333707633331, 0.0 ], [ 116.30169692693471, 39.993865715264391, 0.0 ], [ 116.301499164621532, 39.993867398629071, 0.0 ], [ 116.301501361900705, 39.994332023591916, 0.0 ] ] ] ] } },
{ "type": "Feature", "properties": { "name": null, "Shape_Leng": 225.95226598, "Shape_Area": 2387.58891137 }, "geometry": { "type": "MultiPolygon", "coordinates": [ [ [ [ 116.301156375593948, 39.994401043791932, 0.0 ], [ 116.301152859587901, 39.994559487177426, 0.0 ], [ 116.301629993462868, 39.994554876208745, 0.0 ], [ 116.301621893353939, 39.994389389713035, 0.0 ], [ 116.301469786118489, 39.994391457771933, 0.0 ], [ 116.301476987013771, 39.994232177136269, 0.0 ], [ 116.301038666647315, 39.994237003535659, 0.0 ], [ 116.301036867321784, 39.994399042489292, 0.0 ], [ 116.301156375593948, 39.994401043791932, 0.0 ] ] ] ] } },
{ "type": "Feature", "properties": { "name": null, "Shape_Leng": 184.77054607400001, "Shape_Area": 1502.11363291 }, "geometry": { "type": "MultiPolygon", "coordinates": [ [ [ [ 116.302106340413644, 39.994369867371439, 0.0 ], [ 116.302293379537275, 39.994370944414072, 0.0 ], [ 116.302306036799607, 39.99388288613288, 0.0 ], [ 116.302114778289109, 39.993876421765925, 0.0 ], [ 116.302106340413644, 39.994369867371439, 0.0 ] ] ] ] } },
{ "type": "Feature", "properties": { "name": null, "Shape_Leng": 186.77587290299999, "Shape_Area": 1562.43068066 }, "geometry": { "type": "MultiPolygon", "coordinates": [ [ [ [ 116.302785589837612, 39.994375253960868, 0.0 ], [ 116.302974035722968, 39.994376331691676, 0.0 ], [ 116.302982473598433, 39.993883963871397, 0.0 ], [ 116.302778557825562, 39.99388288613288, 0.0 ], [ 116.302785589837612, 39.994375253960868, 0.0 ] ] ] ] } },
{ "type": "Feature", "properties": { "name": null, "Shape_Leng": 139.351347043, "Shape_Area": 1036.5277922 }, "geometry": { "type": "MultiPolygon", "coordinates": [ [ [ [ 116.302322912550537, 39.994410808055925, 0.0 ], [ 116.302754650960907, 39.994412962828079, 0.0 ], [ 116.302760276211245, 39.994266438164424, 0.0 ], [ 116.302327131039121, 39.994261050878194, 0.0 ], [ 116.302322912550537, 39.994410808055925, 0.0 ] ] ] ] } },
{ "type": "Feature", "properties": { "name": null, "Shape_Leng": 115.27698966, "Shape_Area": 758.82460837999997 }, "geometry": { "type": "MultiPolygon", "coordinates": [ [ [ [ 116.304190496551499, 39.992302329169846, 0.0 ], [ 116.304525198944916, 39.992318490802653, 0.0 ], [ 116.304542074695803, 39.992180581016399, 0.0 ], [ 116.304208779064169, 39.992161187430362, 0.0 ], [ 116.304190496551499, 39.992302329169846, 0.0 ] ] ] ] } },
{ "type": "Feature", "properties": { "name": null, "Shape_Leng": 105.20989898099999, "Shape_Area": 600.59065862600005 }, "geometry": { "type": "MultiPolygon", "coordinates": [ [ [ [ 116.304947093616377, 39.992306638847239, 0.0 ], [ 116.305269138747434, 39.992304484008578, 0.0 ], [ 116.305267732884005, 39.992188122620952, 0.0 ], [ 116.304945686854651, 39.992192432305501, 0.0 ], [ 116.304947093616377, 39.992306638847239, 0.0 ] ] ] ] } },
{ "type": "Feature", "properties": { "name": null, "Shape_Leng": 128.2546474, "Shape_Area": 842.49496317800003 }, "geometry": { "type": "MultiPolygon", "coordinates": [ [ [ [ 116.304580045584558, 39.992364819464875, 0.0 ], [ 116.304903497477341, 39.992360509791162, 0.0 ], [ 116.304904904239066, 39.992264619825541, 0.0 ], [ 116.30479380509631, 39.992263542061458, 0.0 ], [ 116.304798024483205, 39.992167651959655, 0.0 ], [ 116.304578639721129, 39.992175193565629, 0.0 ], [ 116.304580045584558, 39.992364819464875, 0.0 ] ] ] ] } },
{ "type": "Feature", "properties": { "name": null, "Shape_Leng": 115.220388384, "Shape_Area": 748.79197547499996 }, "geometry": { "type": "MultiPolygon", "coordinates": [ [ [ [ 116.30053671860928, 39.995707363005273, 0.0 ], [ 116.30054111316764, 39.995842033923772, 0.0 ], [ 116.300877310357663, 39.995843717239744, 0.0 ], [ 116.300879507636864, 39.99570567968594, 0.0 ], [ 116.30053671860928, 39.995707363005273, 0.0 ] ] ] ] } },
{ "type": "Feature", "properties": { "name": null, "Shape_Leng": 197.69448013799999, "Shape_Area": 2014.0071244000001 }, "geometry": { "type": "MultiPolygon", "coordinates": [ [ [ [ 116.300218100551035, 39.995722513565667, 0.0 ], [ 116.300481784833025, 39.99572756352233, 0.0 ], [ 116.300490573949745, 39.995289882709066, 0.0 ], [ 116.300165364053953, 39.995294932697668, 0.0 ], [ 116.30016316677478, 39.995464955646227, 0.0 ], [ 116.300224692388596, 39.995468322296759, 0.0 ], [ 116.300218100551035, 39.995722513565667, 0.0 ] ] ] ] } },
{ "type": "Feature", "properties": { "name": null, "Shape_Leng": 82.467691938100003, "Shape_Area": 405.94264895499998 }, "geometry": { "type": "MultiPolygon", "coordinates": [ [ [ [ 116.30020271959674, 39.995239380737416, 0.0 ], [ 116.300426850158445, 39.995239380737416, 0.0 ], [ 116.300433442894303, 39.995128276681342, 0.0 ], [ 116.300209311434301, 39.995126592659524, 0.0 ], [ 116.30020271959674, 39.995239380737416, 0.0 ] ] ] ] } },
{ "type": "Feature", "properties": { "name": null, "Shape_Leng": 145.51940772200001, "Shape_Area": 940.523265821 }, "geometry": { "type": "MultiPolygon", "coordinates": [ [ [ [ 116.300145587643001, 39.996082757322483, 0.0 ], [ 116.300338955397763, 39.996086123942561, 0.0 ], [ 116.300343350854462, 39.996113057585205, 0.0 ], [ 116.300626810649121, 39.996116424891937, 0.0 ], [ 116.300631205207495, 39.996012055510263, 0.0 ], [ 116.30056923941919, 39.996007476296342, 0.0 ], [ 116.30057064618093, 39.995981619629326, 0.0 ], [ 116.300150158271165, 39.995974078443659, 0.0 ], [ 116.300145587643001, 39.996082757322483, 0.0 ] ] ] ] } },
{ "type": "Feature", "properties": { "name": null, "Shape_Leng": 167.21529397800001, "Shape_Area": 1389.88339584 }, "geometry": { "type": "MultiPolygon", "coordinates": [ [ [ [ 116.299524348725086, 39.995288872435985, 0.0 ], [ 116.30001233963857, 39.995291027180485, 0.0 ], [ 116.300015152263711, 39.995119724437693, 0.0 ], [ 116.299878739494574, 39.995119724437693, 0.0 ], [ 116.299878739494574, 39.995093867434562, 0.0 ], [ 116.299766234488388, 39.995092790403291, 0.0 ], [ 116.299767641250114, 39.995124033937309, 0.0 ], [ 116.299517316713064, 39.995122956906506, 0.0 ], [ 116.299524348725086, 39.995288872435985, 0.0 ] ] ] ] } },
{ "type": "Feature", "properties": { "name": null, "Shape_Leng": 210.828251561, "Shape_Area": 1746.2628214399999 }, "geometry": { "type": "MultiPolygon", "coordinates": [ [ [ [ 116.299780297614163, 39.995606696857045, 0.0 ], [ 116.299783110239318, 39.995639017866786, 0.0 ], [ 116.29997015026126, 39.995637940155902, 0.0 ], [ 116.299967337636119, 39.995597000207042, 0.0 ], [ 116.300026402764374, 39.995598077918515, 0.0 ], [ 116.300036246503225, 39.995325503082988, 0.0 ], [ 116.299486377836374, 39.99532227131197, 0.0 ], [ 116.299497628336994, 39.995406306255411, 0.0 ], [ 116.299705763496732, 39.995409538022443, 0.0 ], [ 116.299705763496732, 39.995504346547939, 0.0 ], [ 116.299777484989022, 39.995505424260877, 0.0 ], [ 116.299780297614163, 39.995606696857045, 0.0 ] ] ] ] } },
{ "type": "Feature", "properties": { "name": null, "Shape_Leng": 129.95690494499999, "Shape_Area": 908.14255804899994 }, "geometry": { "type": "MultiPolygon", "coordinates": [ [ [ [ 116.299638260493012, 39.995818938218719, 0.0 ], [ 116.300036246503225, 39.99581247403502, 0.0 ], [ 116.30003765326498, 39.995673493593607, 0.0 ], [ 116.299634041106117, 39.995677803058229, 0.0 ], [ 116.299638260493012, 39.995818938218719, 0.0 ] ] ] ] } },
{ "type": "Feature", "properties": { "name": null, "Shape_Leng": 190.24684662499999, "Shape_Area": 1535.05352195 }, "geometry": { "type": "MultiPolygon", "coordinates": [ [ [ [ 116.299760609238064, 39.995865264506442, 0.0 ], [ 116.299401999081709, 39.995873883411264, 0.0 ], [ 116.299397780593125, 39.995964381845866, 0.0 ], [ 116.299570757489292, 39.996031178232535, 0.0 ], [ 116.300074217391966, 39.996043029541667, 0.0 ], [ 116.30006718537993, 39.995905127276082, 0.0 ], [ 116.299763421863247, 39.995904049569454, 0.0 ], [ 116.299760609238064, 39.995865264506442, 0.0 ] ] ] ] } },
{ "type": "Feature", "properties": { "name": null, "Shape_Leng": 152.08640996400001, "Shape_Area": 1143.18184754 }, "geometry": { "type": "MultiPolygon", "coordinates": [ [ [ [ 116.304256593691804, 39.997863744970111, 0.0 ], [ 116.304744584605231, 39.997949931446755, 0.0 ], [ 116.304783961357415, 39.997817420038025, 0.0 ], [ 116.304305814182825, 39.997720460055952, 0.0 ], [ 116.304256593691804, 39.997863744970111, 0.0 ] ] ] ] } },
{ "type": "Feature", "properties": { "name": null, "Shape_Leng": 143.71526385300001, "Shape_Area": 1138.03985324 }, "geometry": { "type": "MultiPolygon", "coordinates": [ [ [ [ 116.304760053594464, 39.998004875612942, 0.0 ], [ 116.304852870224565, 39.998019958223068, 0.0 ], [ 116.304837401235346, 39.998078133973657, 0.0 ], [ 116.305129914251424, 39.998130923381851, 0.0 ], [ 116.305177728879073, 39.997933771834745, 0.0 ], [ 116.304796617721451, 39.997878827611359, 0.0 ], [ 116.304760053594464, 39.998004875612942, 0.0 ] ] ] ] } },
{ "type": "Feature", "properties": { "name": null, "Shape_Leng": 94.849387633899994, "Shape_Area": 437.519675732 }, "geometry": { "type": "MultiPolygon", "coordinates": [ [ [ [ 116.30219493765685, 39.994548713338936, 0.0 ], [ 116.302439636943603, 39.994553022874534, 0.0 ], [ 116.302448078412326, 39.994411432946762, 0.0 ], [ 116.302322912550537, 39.994410808055925, 0.0 ], [ 116.30232431841398, 39.994466832110703, 0.0 ], [ 116.302200562907174, 39.994472218692536, 0.0 ], [ 116.30219493765685, 39.994548713338936, 0.0 ] ] ] ] } },
{ "type": "Feature", "properties": { "name": null, "Shape_Leng": 176.711060949, "Shape_Area": 1338.56722874 }, "geometry": { "type": "MultiPolygon", "coordinates": [ [ [ [ 116.301606834894827, 39.994813480185968, 0.0 ], [ 116.301734398360125, 39.994810689528009, 0.0 ], [ 116.301734398360125, 39.994791382714048, 0.0 ], [ 116.301995410154149, 39.994796209762129, 0.0 ], [ 116.301995410154149, 39.994818963776844, 0.0 ], [ 116.302124116276474, 39.994819653354924, 0.0 ], [ 116.302124116276474, 39.994641066861398, 0.0 ], [ 116.301985509821392, 39.994638308541994, 0.0 ], [ 116.301985509821392, 39.994652098761584, 0.0 ], [ 116.301745198804795, 39.994650720290359, 0.0 ], [ 116.301747142759069, 39.99463894306561, 0.0 ], [ 116.301605440709537, 39.99463894306561, 0.0 ], [ 116.301606834894827, 39.994813480185968, 0.0 ] ] ] ] } },
{ "type": "Feature", "properties": { "name": null, "Shape_Leng": 48.430556430499998, "Shape_Area": 145.07280433700001 }, "geometry": { "type": "MultiPolygon", "coordinates": [ [ [ [ 116.302260055633468, 39.99548124797591, 0.0 ], [ 116.302383084403218, 39.995484193450288, 0.0 ], [ 116.302383084403218, 39.995410558616648, 0.0 ], [ 116.302267744313994, 39.995404667661361, 0.0 ], [ 116.302260055633468, 39.99548124797591, 0.0 ] ] ] ] } },
{ "type": "Feature", "properties": { "name": null, "Shape_Leng": 79.125539675799999, "Shape_Area": 388.32448602900001 }, "geometry": { "type": "MultiPolygon", "coordinates": [ [ [ [ 116.302821376921912, 39.996403145669738, 0.0 ], [ 116.302805997764239, 39.996526849686298, 0.0 ], [ 116.302998230946855, 39.996541576143379, 0.0 ], [ 116.3030136101045, 39.996417872153501, 0.0 ], [ 116.302821376921912, 39.996403145669738, 0.0 ] ] ] ] } },
{ "type": "Feature", "properties": { "name": null, "Shape_Leng": 38.4024934547, "Shape_Area": 84.533873494900007 }, "geometry": { "type": "MultiPolygon", "coordinates": [ [ [ [ 116.302744482930208, 39.996382528311891, 0.0 ], [ 116.30279830818543, 39.996373692004504, 0.0 ], [ 116.30282906560241, 39.996303003569011, 0.0 ], [ 116.302748327719641, 39.996297113378908, 0.0 ], [ 116.302744482930208, 39.996382528311891, 0.0 ] ] ] ] } },
{ "type": "Feature", "properties": { "name": null, "Shape_Leng": 36.849301757399999, "Shape_Area": 80.229199290899999 }, "geometry": { "type": "MultiPolygon", "coordinates": [ [ [ [ 116.30304821141263, 39.99639725480008, 0.0 ], [ 116.303105881457228, 39.996403145669738, 0.0 ], [ 116.303128949295413, 39.996326566388973, 0.0 ], [ 116.303059745780871, 39.996320676200902, 0.0 ], [ 116.30304821141263, 39.99639725480008, 0.0 ] ] ] ] } },
{ "type": "Feature", "properties": { "name": null, "Shape_Leng": 92.321017547699995, "Shape_Area": 282.45068231599998 }, "geometry": { "type": "MultiPolygon", "coordinates": [ [ [ [ 116.302763706877286, 39.99624998771052, 0.0 ], [ 116.303113571036036, 39.996285331620783, 0.0 ], [ 116.303113571036036, 39.996235261190563, 0.0 ], [ 116.302771395557812, 39.996199916566241, 0.0 ], [ 116.302763706877286, 39.99624998771052, 0.0 ] ] ] ] } },
{ "type": "Feature", "properties": { "name": null, "Shape_Leng": 100.51747561400001, "Shape_Area": 445.56490655800002 }, "geometry": { "type": "MultiPolygon", "coordinates": [ [ [ [ 116.303182775448903, 39.996485615038992, 0.0 ], [ 116.303159706712421, 39.996565138881024, 0.0 ], [ 116.303509571769482, 39.996603428054286, 0.0 ], [ 116.30352110523944, 39.996526849686298, 0.0 ], [ 116.303182775448903, 39.996485615038992, 0.0 ] ] ] ] } },
{ "type": "Feature", "properties": { "name": null, "Shape_Leng": 56.495888259300003, "Shape_Area": 143.60757342 }, "geometry": { "type": "MultiPolygon", "coordinates": [ [ [ [ 116.303182775448903, 39.996485615038992, 0.0 ], [ 116.303236038358747, 39.996492106686368, 0.0 ], [ 116.303255823752892, 39.996347183763774, 0.0 ], [ 116.303190464129429, 39.996335402702442, 0.0 ], [ 116.303182775448903, 39.996485615038992, 0.0 ] ] ] ] } },
{ "type": "Feature", "properties": { "name": null, "Shape_Leng": 62.778118122400002, "Shape_Area": 203.19545312599999 }, "geometry": { "type": "MultiPolygon", "coordinates": [ [ [ [ 116.30345241645955, 39.996518477922166, 0.0 ], [ 116.30352110523944, 39.996526849686298, 0.0 ], [ 116.303574930494605, 39.996376637440441, 0.0 ], [ 116.303478814352488, 39.996370746568502, 0.0 ], [ 116.30345241645955, 39.996518477922166, 0.0 ] ] ] ] } },
{ "type": "Feature", "properties": { "name": null, "Shape_Leng": 114.34258436, "Shape_Area": 620.49676698799999 }, "geometry": { "type": "MultiPolygon", "coordinates": [ [ [ [ 116.303190464129429, 39.996335402702442, 0.0 ], [ 116.303574930494605, 39.996376637440441, 0.0 ], [ 116.303594154441711, 39.996276495989036, 0.0 ], [ 116.303221221546451, 39.996238205944273, 0.0 ], [ 116.303190464129429, 39.996335402702442, 0.0 ] ] ] ] } },
{ "type": "Feature", "properties": { "name": null, "Shape_Leng": 85.541931757399993, "Shape_Area": 369.182721012 }, "geometry": { "type": "MultiPolygon", "coordinates": [ [ [ [ 116.303597999231116, 39.996644662630452, 0.0 ], [ 116.303874815085933, 39.996674116178816, 0.0 ], [ 116.303894038134672, 39.996594592463687, 0.0 ], [ 116.303624911858719, 39.996562193453272, 0.0 ], [ 116.303597999231116, 39.996644662630452, 0.0 ] ] ] ] } },
{ "type": "Feature", "properties": { "name": null, "Shape_Leng": 57.4433949485, "Shape_Area": 184.63701743499999 }, "geometry": { "type": "MultiPolygon", "coordinates": [ [ [ [ 116.303659513166807, 39.996479724176446, 0.0 ], [ 116.303828678511252, 39.99649739607441, 0.0 ], [ 116.303844057668897, 39.996426708455154, 0.0 ], [ 116.303674892324509, 39.996417872153501, 0.0 ], [ 116.303659513166807, 39.996479724176446, 0.0 ] ] ] ] } },
{ "type": "Feature", "properties": { "name": null, "Shape_Leng": 49.321471208200002, "Shape_Area": 110.08540931100001 }, "geometry": { "type": "MultiPolygon", "coordinates": [ [ [ [ 116.303947863389894, 39.996603428054286, 0.0 ], [ 116.303993999066222, 39.99661226433193, 0.0 ], [ 116.30402091169384, 39.996482669607808, 0.0 ], [ 116.303963242547539, 39.996476778745006, 0.0 ], [ 116.303947863389894, 39.996603428054286, 0.0 ] ] ] ] } },
{ "type": "Feature", "properties": { "name": null, "Shape_Leng": 65.882421901100003, "Shape_Area": 220.17214549600001 }, "geometry": { "type": "MultiPolygon", "coordinates": [ [ [ [ 116.303993999066222, 39.99661226433193, 0.0 ], [ 116.303947863389894, 39.996603428054286, 0.0 ], [ 116.303932485130503, 39.996668225332535, 0.0 ], [ 116.304140096572482, 39.996706514447993, 0.0 ], [ 116.304151630940751, 39.996644662630452, 0.0 ], [ 116.303993999066222, 39.99661226433193, 0.0 ] ] ] ] } },
{ "type": "Feature", "properties": { "name": null, "Shape_Leng": 84.293550278500007, "Shape_Area": 435.30861400399999 }, "geometry": { "type": "MultiPolygon", "coordinates": [ [ [ [ 116.303609532701046, 39.996786038720934, 0.0 ], [ 116.303578775284066, 39.996906796630959, 0.0 ], [ 116.303797921094258, 39.99693035924259, 0.0 ], [ 116.303817145041336, 39.996803710539638, 0.0 ], [ 116.303609532701046, 39.996786038720934, 0.0 ] ] ] ] } },
{ "type": "Feature", "properties": { "name": null, "Shape_Leng": 63.604897677399997, "Shape_Area": 222.09690418 }, "geometry": { "type": "MultiPolygon", "coordinates": [ [ [ [ 116.303894038134672, 39.99693035924259, 0.0 ], [ 116.30407858173848, 39.996948031023955, 0.0 ], [ 116.304097805685529, 39.996880288597161, 0.0 ], [ 116.303901727713523, 39.99685672596825, 0.0 ], [ 116.303894038134672, 39.99693035924259, 0.0 ] ] ] ] } },
{ "type": "Feature", "properties": { "name": null, "Shape_Leng": 73.721019255000002, "Shape_Area": 286.35375900899999 }, "geometry": { "type": "MultiPolygon", "coordinates": [ [ [ [ 116.304193921827647, 39.996709459869521, 0.0 ], [ 116.304140404694621, 39.99672347952388, 0.0 ], [ 116.304113183944906, 39.996836108747324, 0.0 ], [ 116.304232368823548, 39.996844944994869, 0.0 ], [ 116.304270815819379, 39.996674116178816, 0.0 ], [ 116.30420930098532, 39.996674116178816, 0.0 ], [ 116.304193921827647, 39.996709459869521, 0.0 ] ] ] ] } },
{ "type": "Feature", "properties": { "name": null, "Shape_Leng": 41.690867855500002, "Shape_Area": 99.819039895200007 }, "geometry": { "type": "MultiPolygon", "coordinates": [ [ [ [ 116.304182234745809, 39.996866740379012, 0.0 ], [ 116.304162549962982, 39.996915750548219, 0.0 ], [ 116.304282349289309, 39.996927413830591, 0.0 ], [ 116.304297728446954, 39.996874398456853, 0.0 ], [ 116.304182234745809, 39.996866740379012, 0.0 ] ] ] ] } },
{ "type": "Feature", "properties": { "name": null, "Shape_Leng": 74.638872836499999, "Shape_Area": 275.94974746899999 }, "geometry": { "type": "MultiPolygon", "coordinates": [ [ [ [ 116.303817145041336, 39.997107078226584, 0.0 ], [ 116.303797921094258, 39.997174820428398, 0.0 ], [ 116.304043980430336, 39.997195437547113, 0.0 ], [ 116.304055513900252, 39.997124749962211, 0.0 ], [ 116.303817145041336, 39.997107078226584, 0.0 ] ] ] ] } },
{ "type": "Feature", "properties": { "name": null, "Shape_Leng": 54.839111192499999, "Shape_Area": 167.327541736 }, "geometry": { "type": "MultiPolygon", "coordinates": [ [ [ [ 116.30407858173848, 39.997210163860018, 0.0 ], [ 116.304251591872273, 39.997221944770395, 0.0 ], [ 116.304251591872273, 39.9971571480176, 0.0 ], [ 116.304101650474962, 39.997148312498645, 0.0 ], [ 116.30407858173848, 39.997210163860018, 0.0 ] ] ] ] } },
{ "type": "Feature", "properties": { "name": null, "Shape_Leng": 101.79218548, "Shape_Area": 556.7495055000001 }, "geometry": { "type": "MultiPolygon", "coordinates": [ [ [ [ 116.30430541712748, 39.997192492146496, 0.0 ], [ 116.304443825054875, 39.997218999370972, 0.0 ], [ 116.304497650310097, 39.99697748444148, 0.0 ], [ 116.30435539849158, 39.99695981266774, 0.0 ], [ 116.30430541712748, 39.997192492146496, 0.0 ] ] ] ] } },
{ "type": "Feature", "properties": { "name": null, "Shape_Leng": 78.005159581300006, "Shape_Area": 310.38688429400003 }, "geometry": { "type": "MultiPolygon", "coordinates": [ [ [ [ 116.303498037401269, 39.997148312498645, 0.0 ], [ 116.303755630207291, 39.99717187502695, 0.0 ], [ 116.303755630207291, 39.997092351203264, 0.0 ], [ 116.303517261348318, 39.99707467945931, 0.0 ], [ 116.303498037401269, 39.997148312498645, 0.0 ] ] ] ] } },
{ "type": "Feature", "properties": { "name": null, "Shape_Leng": 63.8032054894, "Shape_Area": 220.264892984 }, "geometry": { "type": "MultiPolygon", "coordinates": [ [ [ [ 116.303125105404305, 39.996741858810125, 0.0 ], [ 116.303209688076521, 39.996756585220837, 0.0 ], [ 116.303232755914664, 39.996603428054286, 0.0 ], [ 116.30313663887425, 39.996597537890096, 0.0 ], [ 116.303125105404305, 39.996741858810125, 0.0 ] ] ] ] } },
{ "type": "Feature", "properties": { "name": null, "Shape_Leng": 49.109084882700003, "Shape_Area": 94.717180552399995 }, "geometry": { "type": "MultiPolygon", "coordinates": [ [ [ [ 116.303227805299173, 39.996636295698025, 0.0 ], [ 116.303401921259123, 39.996656444326575, 0.0 ], [ 116.303409609939607, 39.996624045345456, 0.0 ], [ 116.303232755914664, 39.996603428054286, 0.0 ], [ 116.303227805299173, 39.996636295698025, 0.0 ] ] ] ] } },
{ "type": "Feature", "properties": { "name": null, "Shape_Leng": 58.297575842599997, "Shape_Area": 171.356562607 }, "geometry": { "type": "MultiPolygon", "coordinates": [ [ [ [ 116.303409609939607, 39.996624045345456, 0.0 ], [ 116.303405766048527, 39.996771311628372, 0.0 ], [ 116.303467279984247, 39.996777202465765, 0.0 ], [ 116.303494192611808, 39.996638772469765, 0.0 ], [ 116.303409609939607, 39.996624045345456, 0.0 ] ] ] ] } },
{ "type": "Feature", "properties": { "name": null, "Shape_Leng": 98.290127647700004, "Shape_Area": 282.81617291200001 }, "geometry": { "type": "MultiPolygon", "coordinates": [ [ [ [ 116.303063590570275, 39.997062898523474, 0.0 ], [ 116.303052056202034, 39.997115913750875, 0.0 ], [ 116.30343652256721, 39.997142421693269, 0.0 ], [ 116.30343652256721, 39.997104132822209, 0.0 ], [ 116.303063590570275, 39.997062898523474, 0.0 ] ] ] ] } },
{ "type": "Feature", "properties": { "name": null, "Shape_Leng": 43.931747249499999, "Shape_Area": 118.155745533 }, "geometry": { "type": "MultiPolygon", "coordinates": [ [ [ [ 116.303063590570275, 39.997062898523474, 0.0 ], [ 116.30317172347597, 39.997074854256738, 0.0 ], [ 116.303175085870095, 39.997006937158098, 0.0 ], [ 116.303063590570275, 39.996998101619717, 0.0 ], [ 116.303063590570275, 39.997062898523474, 0.0 ] ] ] ] } },
{ "type": "Feature", "properties": { "name": null, "Shape_Leng": 64.488591290599999, "Shape_Area": 256.33197642 }, "geometry": { "type": "MultiPolygon", "coordinates": [ [ [ [ 116.303190464129429, 39.996974539031498, 0.0 ], [ 116.30317172347597, 39.997074854256738, 0.0 ], [ 116.303332117669981, 39.997092588624952, 0.0 ], [ 116.303348096003901, 39.996998101619717, 0.0 ], [ 116.303190464129429, 39.996974539031498, 0.0 ] ] ] ] } },
{ "type": "Feature", "properties": { "name": null, "Shape_Leng": 44.852325139599998, "Shape_Area": 121.556959066 }, "geometry": { "type": "MultiPolygon", "coordinates": [ [ [ [ 116.30334308879452, 39.997027713985105, 0.0 ], [ 116.303332117669981, 39.997092588624952, 0.0 ], [ 116.30343652256721, 39.997104132822209, 0.0 ], [ 116.303467279984247, 39.997042281364791, 0.0 ], [ 116.30334308879452, 39.997027713985105, 0.0 ] ] ] ] } },
{ "type": "Feature", "properties": { "name": null, "Shape_Leng": 38.454771467400001, "Shape_Area": 89.022031303800006 }, "geometry": { "type": "MultiPolygon", "coordinates": [ [ [ [ 116.303398076469691, 39.996983375261074, 0.0 ], [ 116.303471124773651, 39.997003992437591, 0.0 ], [ 116.303490348720743, 39.996921523006158, 0.0 ], [ 116.30342498909728, 39.996915632869353, 0.0 ], [ 116.303398076469691, 39.996983375261074, 0.0 ] ] ] ] } },
{ "type": "Feature", "properties": { "name": null, "Shape_Leng": 41.705150271800001, "Shape_Area": 104.683000674 }, "geometry": { "type": "MultiPolygon", "coordinates": [ [ [ [ 116.303063590570275, 39.996953921846099, 0.0 ], [ 116.303140483663654, 39.99696864821108, 0.0 ], [ 116.303155862821328, 39.996880288597161, 0.0 ], [ 116.303082813619056, 39.996874398456853, 0.0 ], [ 116.303063590570275, 39.996953921846099, 0.0 ] ] ] ] } },
{ "type": "Feature", "properties": { "name": null, "Shape_Leng": 36.409025833999998, "Shape_Area": 80.138227899200004 }, "geometry": { "type": "MultiPolygon", "coordinates": [ [ [ [ 116.303213531967614, 39.996800765122117, 0.0 ], [ 116.303113571036036, 39.996794874286756, 0.0 ], [ 116.303105881457228, 39.996844944994869, 0.0 ], [ 116.303194308918833, 39.996853781241214, 0.0 ], [ 116.303213531967614, 39.996800765122117, 0.0 ] ] ] ] } },
{ "type": "Feature", "properties": { "name": null, "Shape_Leng": 62.329524423599999, "Shape_Area": 233.886283518 }, "geometry": { "type": "MultiPolygon", "coordinates": [ [ [ [ 116.303194308918833, 39.996853781241214, 0.0 ], [ 116.303359629473846, 39.996880288597161, 0.0 ], [ 116.303389926055118, 39.996795110333082, 0.0 ], [ 116.303232447792524, 39.996770604865524, 0.0 ], [ 116.303194308918833, 39.996853781241214, 0.0 ] ] ] ] } },
{ "type": "Feature", "properties": { "name": null, "Shape_Leng": 36.818213460199999, "Shape_Area": 77.108408703400002 }, "geometry": { "type": "MultiPolygon", "coordinates": [ [ [ [ 116.303375498213342, 39.996835673816705, 0.0 ], [ 116.303359629473846, 39.996880288597161, 0.0 ], [ 116.303467279984247, 39.996886179425154, 0.0 ], [ 116.303478814352488, 39.996841999579132, 0.0 ], [ 116.303375498213342, 39.996835673816705, 0.0 ] ] ] ] } },
{ "type": "Feature", "properties": { "name": null, "Shape_Leng": 109.886157549, "Shape_Area": 460.47812957500003 }, "geometry": { "type": "MultiPolygon", "coordinates": [ [ [ [ 116.299401999081709, 39.995873883411264, 0.0 ], [ 116.299564944491109, 39.995593172473015, 0.0 ], [ 116.299461138770113, 39.995563718458449, 0.0 ], [ 116.299331649316869, 39.99585399881726, 0.0 ], [ 116.299401999081709, 39.995873883411264, 0.0 ] ] ] ] } },
{ "type": "Feature", "properties": { "name": null, "Shape_Leng": 197.66038175599999, "Shape_Area": 2151.4038417400002 }, "geometry": { "type": "MultiPolygon", "coordinates": [ [ [ [ 116.308105951939353, 39.994440822078751, 0.0 ], [ 116.308400809558307, 39.994521073669539, 0.0 ], [ 116.308555998913562, 39.994072258847424, 0.0 ], [ 116.308296057911335, 39.994015785068008, 0.0 ], [ 116.308105951939353, 39.994440822078751, 0.0 ] ] ] ] } },
{ "type": "Feature", "properties": { "name": null, "Shape_Leng": 81.1756564338, "Shape_Area": 290.14402819399999 }, "geometry": { "type": "MultiPolygon", "coordinates": [ [ [ [ 116.307822731994875, 39.991572514904718, 0.0 ], [ 116.308105951939353, 39.991587377324045, 0.0 ], [ 116.308105951939353, 39.991530901489909, 0.0 ], [ 116.307830491642292, 39.991501177311747, 0.0 ], [ 116.307822731994875, 39.991572514904718, 0.0 ] ] ] ] } },
{ "type": "Feature", "properties": { "name": null, "Shape_Leng": 67.116685916899996, "Shape_Area": 207.612451381 }, "geometry": { "type": "MultiPolygon", "coordinates": [ [ [ [ 116.307865409157415, 39.991459563853475, 0.0 ], [ 116.308092216698654, 39.99145978546531, 0.0 ], [ 116.308094319654742, 39.991406601358712, 0.0 ], [ 116.307865409157415, 39.991400115422067, 0.0 ], [ 116.307865409157415, 39.991459563853475, 0.0 ] ] ] ] } },
{ "type": "Feature", "properties": { "name": null, "Shape_Leng": 96.323356060500004, "Shape_Area": 557.14256780400001 }, "geometry": { "type": "MultiPolygon", "coordinates": [ [ [ [ 116.308099492154128, 39.991275845335316, 0.0 ], [ 116.308107379362355, 39.99107642552039, 0.0 ], [ 116.307939124011284, 39.991076122695077, 0.0 ], [ 116.307919724892741, 39.991272302289389, 0.0 ], [ 116.308099492154128, 39.991275845335316, 0.0 ] ] ] ] } }
]
}
